[{"OBJECT_NAME":"ONEWEB-0515","OBJECT_ID":"2022-138W","EPOCH":"2025-11-19T06:32:27.872448","MEAN_MOTION":13.20772325,"ECCENTRICITY":0.00018639,"INCLINATION":87.9182,"RA_OF_ASC_NODE":316.2853,"ARG_OF_PERICENTER":60.7348,"MEAN_ANOMALY":299.3972,"EPHEMERIS_TYPE":0,"CLASSIFICATION_TYPE":"U","NORAD_CAT_ID":54133,"ELEMENT_SET_NO":999,"REV_AT_EPOCH":15159,"BSTAR":-0.00028974763,"MEAN_MOTION_DOT":-1.05e-6,"MEAN_MOTION_DDOT":0},{"OBJECT_NAME":"ONEWEB-0516","OBJECT_ID":"2022-138X","EPOCH":"2025-11-19T03:13:57.261792","MEAN_MOTION":13.1972666,"ECCENTRICITY":0.00020405,"INCLINATION":87.9202,"RA_OF_ASC_NODE":346.7794,"ARG_OF_PERICENTER":96.2572,"MEAN_ANOMALY":263.8793,"EPHEMERIS_TYPE":0,"CLASSIFICATION_TYPE":"U","NORAD_CAT_ID":54134,"ELEMENT_SET_NO":999,"REV_AT_EPOCH":14912,"BSTAR":-4.0061023e-5,"MEAN_MOTION_DOT":-3.0e-8,"MEAN_MOTION_DDOT":0},{"OBJECT_NAME":"ONEWEB-0517","OBJECT_ID":"2022-138Y","EPOCH":"2025-11-18T12:10:59.633760","MEAN_MOTION":13.1972635,"ECCENTRICITY":0.00016891,"INCLINATION":87.9221,"RA_OF_ASC_NODE":346.8806,"ARG_OF_PERICENTER":102.557,"MEAN_ANOMALY":257.5751,"EPHEMERIS_TYPE":0,"CLASSIFICATION_TYPE":"U","NORAD_CAT_ID":54135,"ELEMENT_SET_NO":999,"REV_AT_EPOCH":14904,"BSTAR":0.00029759624,"MEAN_MOTION_DOT":1.32e-6,"MEAN_MOTION_DDOT":0},{"OBJECT_NAME":"ONEWEB-0518","OBJECT_ID":"2022-138Z","EPOCH":"2025-11-19T03:11:41.296704","MEAN_MOTION":13.19726788,"ECCENTRICITY":0.00020714,"INCLINATION":87.9201,"RA_OF_ASC_NODE":346.7818,"ARG_OF_PERICENTER":98.4901,"MEAN_ANOMALY":261.6466,"EPHEMERIS_TYPE":0,"CLASSIFICATION_TYPE":"U","NORAD_CAT_ID":54136,"ELEMENT_SET_NO":999,"REV_AT_EPOCH":14912,"BSTAR":0.0001510417,"MEAN_MOTION_DOT":7.3e-7,"MEAN_MOTION_DDOT":0},{"OBJECT_NAME":"ONEWEB-0519","OBJECT_ID":"2022-138AA","EPOCH":"2025-11-19T01:58:54.604416","MEAN_MOTION":13.19727309,"ECCENTRICITY":0.00017779,"INCLINATION":87.9218,"RA_OF_ASC_NODE":346.7576,"ARG_OF_PERICENTER":101.3051,"MEAN_ANOMALY":258.8281,"EPHEMERIS_TYPE":0,"CLASSIFICATION_TYPE":"U","NORAD_CAT_ID":54137,"ELEMENT_SET_NO":999,"REV_AT_EPOCH":14912,"BSTAR":0.00026659236,"MEAN_MOTION_DOT":1.2e-6,"MEAN_MOTION_DDOT":0},{"OBJECT_NAME":"ONEWEB-0520","OBJECT_ID":"2022-138AB","EPOCH":"2025-11-19T02:48:56.163744","MEAN_MOTION":13.19727463,"ECCENTRICITY":0.00021453,"INCLINATION":87.922,"RA_OF_ASC_NODE":346.7547,"ARG_OF_PERICENTER":96.3723,"MEAN_ANOMALY":263.7654,"EPHEMERIS_TYPE":0,"CLASSIFICATION_TYPE":"U","NORAD_CAT_ID":54138,"ELEMENT_SET_NO":999,"REV_AT_EPOCH":14911,"BSTAR":-6.2664948e-5,"MEAN_MOTION_DOT":-1.2e-7,"MEAN_MOTION_DDOT":0},{"OBJECT_NAME":"ONEWEB-0521","OBJECT_ID":"2022-138AC","EPOCH":"2025-11-19T07:15:02.773152","MEAN_MOTION":13.1972799,"ECCENTRICITY":0.00016658,"INCLINATION":87.9219,"RA_OF_ASC_NODE":346.7032,"ARG_OF_PERICENTER":99.3522,"MEAN_ANOMALY":260.7799,"EPHEMERIS_TYPE":0,"CLASSIFICATION_TYPE":"U","NORAD_CAT_ID":54139,"ELEMENT_SET_NO":999,"REV_AT_EPOCH":14908,"BSTAR":-2.7637237e-5,"MEAN_MOTION_DOT":2.0e-8,"MEAN_MOTION_DDOT":0},{"OBJECT_NAME":"ONEWEB-0522","OBJECT_ID":"2022-138AD","EPOCH":"2025-11-19T03:07:08.682240","MEAN_MOTION":13.19724051,"ECCENTRICITY":0.0002008,"INCLINATION":87.9221,"RA_OF_ASC_NODE":346.7382,"ARG_OF_PERICENTER":97.7914,"MEAN_ANOMALY":262.3447,"EPHEMERIS_TYPE":0,"CLASSIFICATION_TYPE":"U","NORAD_CAT_ID":54140,"ELEMENT_SET_NO":999,"REV_AT_EPOCH":14910,"BSTAR":4.5190177e-5,"MEAN_MOTION_DOT":3.1e-7,"MEAN_MOTION_DDOT":0},{"OBJECT_NAME":"ONEWEB-0523","OBJECT_ID":"2022-138AE","EPOCH":"2025-11-19T06:14:18.172320","MEAN_MOTION":13.20772531,"ECCENTRICITY":0.00012547,"INCLINATION":87.9175,"RA_OF_ASC_NODE":316.3079,"ARG_OF_PERICENTER":67.2381,"MEAN_ANOMALY":292.8885,"EPHEMERIS_TYPE":0,"CLASSIFICATION_TYPE":"U","NORAD_CAT_ID":54141,"ELEMENT_SET_NO":999,"REV_AT_EPOCH":15159,"BSTAR":0.00034734494,"MEAN_MOTION_DOT":1.54e-6,"MEAN_MOTION_DDOT":0},{"OBJECT_NAME":"ONEWEB-0524","OBJECT_ID":"2022-138AF","EPOCH":"2025-11-19T00:31:07.963680","MEAN_MOTION":13.20771338,"ECCENTRICITY":0.00021871,"INCLINATION":87.9176,"RA_OF_ASC_NODE":316.3572,"ARG_OF_PERICENTER":64.7588,"MEAN_ANOMALY":295.3772,"EPHEMERIS_TYPE":0,"CLASSIFICATION_TYPE":"U","NORAD_CAT_ID":54142,"ELEMENT_SET_NO":999,"REV_AT_EPOCH":15156,"BSTAR":0.00021657209,"MEAN_MOTION_DOT":1.01e-6,"MEAN_MOTION_DDOT":0},{"OBJECT_NAME":"ONEWEB-0525","OBJECT_ID":"2022-138AG","EPOCH":"2025-11-19T07:12:46.699200","MEAN_MOTION":13.1972785,"ECCENTRICITY":0.00021586,"INCLINATION":87.9216,"RA_OF_ASC_NODE":346.7259,"ARG_OF_PERICENTER":97.9458,"MEAN_ANOMALY":262.192,"EPHEMERIS_TYPE":0,"CLASSIFICATION_TYPE":"U","NORAD_CAT_ID":54143,"ELEMENT_SET_NO":999,"REV_AT_EPOCH":14914,"BSTAR":-0.00012200385,"MEAN_MOTION_DOT":-3.6e-7,"MEAN_MOTION_DDOT":0},{"OBJECT_NAME":"ONEWEB-0526","OBJECT_ID":"2022-138AH","EPOCH":"2025-11-19T02:33:01.655424","MEAN_MOTION":13.19726847,"ECCENTRICITY":0.00019825,"INCLINATION":87.9219,"RA_OF_ASC_NODE":346.7517,"ARG_OF_PERICENTER":93.9064,"MEAN_ANOMALY":266.2295,"EPHEMERIS_TYPE":0,"CLASSIFICATION_TYPE":"U","NORAD_CAT_ID":54144,"ELEMENT_SET_NO":999,"REV_AT_EPOCH":14909,"BSTAR":2.7767218e-5,"MEAN_MOTION_DOT":2.4e-7,"MEAN_MOTION_DDOT":0},{"OBJECT_NAME":"ONEWEB-0529","OBJECT_ID":"2022-138AJ","EPOCH":"2025-11-19T02:37:34.371840","MEAN_MOTION":13.19726728,"ECCENTRICITY":0.00020953,"INCLINATION":87.9202,"RA_OF_ASC_NODE":346.7819,"ARG_OF_PERICENTER":95.3329,"MEAN_ANOMALY":264.8043,"EPHEMERIS_TYPE":0,"CLASSIFICATION_TYPE":"U","NORAD_CAT_ID":54145,"ELEMENT_SET_NO":999,"REV_AT_EPOCH":14911,"BSTAR":3.001984e-6,"MEAN_MOTION_DOT":1.4e-7,"MEAN_MOTION_DDOT":0},{"OBJECT_NAME":"ONEWEB-0531","OBJECT_ID":"2022-138AK","EPOCH":"2025-11-19T05:37:54.944544","MEAN_MOTION":13.20774081,"ECCENTRICITY":0.00015,"INCLINATION":87.9182,"RA_OF_ASC_NODE":316.3065,"ARG_OF_PERICENTER":60.8141,"MEAN_ANOMALY":299.3142,"EPHEMERIS_TYPE":0,"CLASSIFICATION_TYPE":"U","NORAD_CAT_ID":54146,"ELEMENT_SET_NO":999,"REV_AT_EPOCH":15159,"BSTAR":8.3698259e-5,"MEAN_MOTION_DOT":4.7e-7,"MEAN_MOTION_DDOT":0},{"OBJECT_NAME":"ONEWEB-0535","OBJECT_ID":"2022-138AL","EPOCH":"2025-11-19T07:03:40.705632","MEAN_MOTION":13.19727297,"ECCENTRICITY":0.00013342,"INCLINATION":87.9215,"RA_OF_ASC_NODE":346.7098,"ARG_OF_PERICENTER":86.0834,"MEAN_ANOMALY":274.0451,"EPHEMERIS_TYPE":0,"CLASSIFICATION_TYPE":"U","NORAD_CAT_ID":54147,"ELEMENT_SET_NO":999,"REV_AT_EPOCH":14915,"BSTAR":-0.0013801641,"MEAN_MOTION_DOT":-5.4e-6,"MEAN_MOTION_DDOT":0},{"OBJECT_NAME":"ONEWEB-0536","OBJECT_ID":"2022-138AM","EPOCH":"2025-11-19T05:19:45.945984","MEAN_MOTION":13.20772112,"ECCENTRICITY":0.00016938,"INCLINATION":87.9176,"RA_OF_ASC_NODE":316.3541,"ARG_OF_PERICENTER":55.9302,"MEAN_ANOMALY":304.1992,"EPHEMERIS_TYPE":0,"CLASSIFICATION_TYPE":"U","NORAD_CAT_ID":54148,"ELEMENT_SET_NO":999,"REV_AT_EPOCH":15158,"BSTAR":5.7091938e-5,"MEAN_MOTION_DOT":3.6e-7,"MEAN_MOTION_DDOT":0}]
