ONEWEB-0515             
1 54133U 22138W   25323.27254482 -.00000105  00000+0 -28975-3 0  9992
2 54133  87.9182 316.2853 0001863  60.7348 299.3972 13.20772325151591
ONEWEB-0516             
1 54134U 22138X   25323.13469053 -.00000003  00000+0 -40061-4 0  9998
2 54134  87.9202 346.7794 0002040  96.2572 263.8793 13.19726660149120
ONEWEB-0517             
1 54135U 22138Y   25322.50763465  .00000132  00000+0  29760-3 0  9996
2 54135  87.9221 346.8806 0001689 102.5570 257.5751 13.19726350149045
ONEWEB-0518             
1 54136U 22138Z   25323.13311686  .00000073  00000+0  15104-3 0  9992
2 54136  87.9201 346.7818 0002071  98.4901 261.6466 13.19726788149126
ONEWEB-0519             
1 54137U 22138AA  25323.08257644  .00000120  00000+0  26659-3 0  9990
2 54137  87.9218 346.7576 0001777 101.3051 258.8281 13.19727309149121
ONEWEB-0520             
1 54138U 22138AB  25323.11731671 -.00000012  00000+0 -62665-4 0  9992
2 54138  87.9220 346.7547 0002145  96.3723 263.7654 13.19727463149111
ONEWEB-0521             
1 54139U 22138AC  25323.30211543  .00000002  00000+0 -27637-4 0  9993
2 54139  87.9219 346.7032 0001665  99.3522 260.7799 13.19727990149083
ONEWEB-0522             
1 54140U 22138AD  25323.12996160  .00000031  00000+0  45190-4 0  9995
2 54140  87.9221 346.7382 0002008  97.7914 262.3447 13.19724051149101
ONEWEB-0523             
1 54141U 22138AE  25323.25993255  .00000154  00000+0  34734-3 0  9999
2 54141  87.9175 316.3079 0001254  67.2381 292.8885 13.20772531151596
ONEWEB-0524             
1 54142U 22138AF  25323.02161995  .00000101  00000+0  21657-3 0  9995
2 54142  87.9176 316.3572 0002187  64.7588 295.3772 13.20771338151567
ONEWEB-0525             
1 54143U 22138AG  25323.30054050 -.00000036  00000+0 -12200-3 0  9993
2 54143  87.9216 346.7259 0002158  97.9458 262.1920 13.19727850149140
ONEWEB-0526             
1 54144U 22138AH  25323.10626916  .00000024  00000+0  27767-4 0  9998
2 54144  87.9219 346.7517 0001982  93.9064 266.2295 13.19726847149093
ONEWEB-0529             
1 54145U 22138AJ  25323.10942560  .00000014  00000+0  30020-5 0  9991
2 54145  87.9202 346.7819 0002095  95.3329 264.8043 13.19726728149113
ONEWEB-0531             
1 54146U 22138AK  25323.23466371  .00000047  00000+0  83698-4 0  9991
2 54146  87.9182 316.3065 0001500  60.8141 299.3142 13.20774081151591
ONEWEB-0535             
1 54147U 22138AL  25323.29422113 -.00000540  00000+0 -13802-2 0  9992
2 54147  87.9215 346.7098 0001334  86.0834 274.0451 13.19727297149153
ONEWEB-0536             
1 54148U 22138AM  25323.22205956  .00000036  00000+0  57092-4 0  9999
2 54148  87.9176 316.3541 0001693  55.9302 304.1992 13.20772112151582
